ONEWEB-0332             
1 49279U 21090A   24026.14763593 -.00000010  00000+0 -60794-4 0  9997
2 49279  87.8966 103.5055 0002183 109.3845 250.7521 13.14504230112885
ONEWEB-0347             
1 49280U 21090B   24026.17494342  .00000108  00000+0  23276-3 0  9994
2 49280  87.9166  88.2224 0002291 106.2573 253.8812 13.20770944115807
ONEWEB-0349             
1 49281U 21090C   24025.67620488  .00000104  00000+0  22321-3 0  9997
2 49281  87.9170  88.3194 0001603  94.4032 265.7284 13.20772301114526
ONEWEB-0353             
1 49282U 21090D   24025.75911751  .00000003  00000+0 -26819-4 0  9999
2 49282  87.8966 103.5668 0002144 109.0090 251.1272 13.14501264112832
ONEWEB-0356             
1 49283U 21090E   24026.12916727  .00000091  00000+0  19099-3 0  9997
2 49283  87.9168  88.2251 0001472 130.7792 229.3469 13.20770659115873
ONEWEB-0358             
1 49284U 21090F   24026.15914951  .00000064  00000+0  12525-3 0  9995
2 49284  87.9169  88.2038 0001471 100.8107 259.3192 13.20771906116609
ONEWEB-0359             
1 49285U 21090G   24026.15600076  .00000041  00000+0  69019-4 0  9992
2 49285  87.9167  88.2251 0001644  83.0179 277.1141 13.20770867116571
ONEWEB-0360             
1 49286U 21090H   24025.69198510  .00000022  00000+0  21530-4 0  9991
2 49286  87.9169  88.3222 0001808  95.3547 264.7792 13.20772449114547
